0 SERT 2
1 04327U 70009A   13280.49830330  .00000001  00000-0  56862-4 0  6995
2 04327 099.1911 068.5826 0004288 238.5578 162.9782 13.58317465164383
0 SERT 2
1 04327U 70009A   13282.79500785 -.00000005  00000-0  49527-4 0  7006
2 04327 099.1912 070.7328 0004357 231.9697 234.4437 13.58317827164690
0 SERT 2
1 04327U 70009A   13287.07127672 -.00000029  00000-0  16465-4 0  7025
2 04327 099.1919 074.7363 0004503 220.2160 265.9732 13.58318401165270
0 SERT 2
1 04327U 70009A   13289.48489303 -.00000020  00000-0  28556-4 0  7030
2 04327 099.1925 076.9961 0004589 214.0462 188.4205 13.58318452165602
0 SERT 2
1 04327U 70009A   13291.86355012  .00000007  00000-0  65618-4 0  7049
2 04327 099.1929 079.2234 0004670 207.3612 300.5255 13.58318565165920
0 SERT 2
1 04327U 70009A   13294.06892907  .00000010  00000-0  69563-4 0  7051
2 04327 099.1930 081.2885 0004756 201.8858 284.5442 13.58318676166229
